[{"OBJECT_NAME":"STARLINK-30079","OBJECT_ID":"2023-067U","EPOCH":"2026-03-08T23:24:17.225568","MEAN_MOTION":15.02541537,"ECCENTRICITY":0.00013392,"INCLINATION":43.0031,"RA_OF_ASC_NODE":278.2482,"ARG_OF_PERICENTER":262.3232,"MEAN_ANOMALY":97.7458,"EPHEMERIS_TYPE":0,"CLASSIFICATION_TYPE":"U","NORAD_CAT_ID":56706,"ELEMENT_SET_NO":999,"REV_AT_EPOCH":15555,"BSTAR":6.8530294e-5,"MEAN_MOTION_DOT":7.22e-6,"MEAN_MOTION_DDOT":0},{"OBJECT_NAME":"DELTA 1 DEB","OBJECT_ID":"1977-065ED","EPOCH":"2026-03-08T13:54:07.358112","MEAN_MOTION":13.25885407,"ECCENTRICITY":0.08433341,"INCLINATION":29.0608,"RA_OF_ASC_NODE":1.9535,"ARG_OF_PERICENTER":35.0136,"MEAN_ANOMALY":330.3034,"EPHEMERIS_TYPE":0,"CLASSIFICATION_TYPE":"U","NORAD_CAT_ID":10471,"ELEMENT_SET_NO":999,"REV_AT_EPOCH":34001,"BSTAR":0.00062177821,"MEAN_MOTION_DOT":2.167e-5,"MEAN_MOTION_DDOT":0}]
